GLOBALSTAR M068         
1 32266U 07048D   25029.34207257 -.00000049  00000+0  30206-3 0  9993
2 32266  51.9908   5.5002 0000831 171.4206 336.2044 12.62814536800017
GLOBALSTAR M079         
1 37188U 10054A   25029.52014506 -.00000109  00000+0 -30955-4 0  9995
2 37188  52.0013 201.9119 0000985  76.3987 318.7095 12.62270423658949
GLOBALSTAR M074         
1 37189U 10054B   25029.46373383 -.00000109  00000+0 -29086-4 0  9993
2 37189  51.9989 201.4275 0001224  94.7183 283.6931 12.62262425659546
GLOBALSTAR M076         
1 37190U 10054C   25029.58239580 -.00000107  00000+0 -16440-4 0  9996
2 37190  52.0008 201.2233 0001272  79.8796 359.1642 12.62277295659270
GLOBALSTAR M077         
1 37191U 10054D   25029.63410397 -.00000112  00000+0 -46998-4 0  9997
2 37191  52.0059 157.8844 0000968 105.6696 266.9568 12.62270237659652
GLOBALSTAR M075         
1 37192U 10054E   25029.29913478 -.00000078  00000+0  14411-3 0  9992
2 37192  51.9927 244.4214 0001030  82.0124  89.7039 12.62272613658309
GLOBALSTAR M073         
1 37193U 10054F   25029.51635479 -.00000119  00000+0 -86322-4 0  9998
2 37193  52.0050 157.4721 0000963  98.5749 339.4956 12.62262762660326
GLOBALSTAR M083         
1 37739U 11033A   25029.51523765 -.00000084  00000+0  11171-3 0  9995
2 37739  51.9857 106.3954 0000464 117.9784 256.1416 12.62271180629344
GLOBALSTAR M088         
1 37740U 11033B   25029.44448900 -.00000098  00000+0  32171-4 0  9995
2 37740  51.9757  12.2185 0000205  61.5524 111.0586 12.62267838624870
GLOBALSTAR M091         
1 37741U 11033C   25029.61577608 -.00000083  00000+0  11650-3 0  9995
2 37741  52.0024 335.0063 0000342  21.4814 149.4068 12.62273233625686
GLOBALSTAR M085         
1 37742U 11033D   25029.73188390 -.00000058  00000+0  25796-3 0  9993
2 37742  51.9871 285.8155 0000644  53.7682 344.8696 12.62264811626709
GLOBALSTAR M081         
1 37743U 11033E   25029.47038472 -.00000054  00000+0  27968-3 0  9999
2 37743  51.9963 289.3112 0000833  49.2962 121.6938 12.62259990626325
GLOBALSTAR M089         
1 37744U 11033F   25029.35203072 -.00000072  00000+0  17703-3 0  9993
2 37744  51.9911 243.9264 0001226  80.0667  91.8072 12.62265854627150
GLOBALSTAR M084         
1 38040U 11080A   25029.59570882 -.00000082  00000+0  12160-3 0  9990
2 38040  52.0006 110.3952 0000998 114.9632  25.4600 12.62273879605165
GLOBALSTAR M080         
1 38041U 11080B   25029.54209757 -.00000091  00000+0  73916-4 0  9993
2 38041  52.0059 112.1216 0001097  97.7857 275.8203 12.62260657605288
GLOBALSTAR M082         
1 38042U 11080C   25029.50512509 -.00000076  00000+0  15238-3 0  9997
2 38042  52.0080  67.6615 0000440 189.1882 318.6807 12.62272611605981
GLOBALSTAR M092         
1 38043U 11080D   25029.60741227 -.00000103  00000+0  39144-5 0  9995
2 38043  52.0074 157.7188 0001008 110.6972 262.2227 12.62272575604451
GLOBALSTAR M090         
1 38044U 11080E   25029.34372352 -.00000076  00000+0  15530-3 0  9996
2 38044  51.9890  62.1404 0000259 142.6470 230.8222 12.62266264606086
GLOBALSTAR M086         
1 38045U 11080F   25029.38954677 -.00000081  00000+0  12481-3 0  9995
2 38045  51.9902  62.5408 0000839  40.7661  61.4762 12.62266082606033
GLOBALSTAR M097         
1 39072U 13005A   25029.55213941 -.00000091  00000+0  72904-4 0  9994
2 39072  52.0071 336.4543 0000501  37.5230 322.5672 12.62269399553304
GLOBALSTAR M093         
1 39073U 13005B   25029.20833023 -.00000077  00000+0  14975-3 0  9993
2 39073  51.9834 331.0218 0000575  31.2901 328.8000 12.62272458553211
GLOBALSTAR M094         
1 39074U 13005C   25029.52554838 -.00000067  00000+0  20460-3 0  9998
2 39074  51.9935 244.3026 0000886  60.2605 299.8349 12.62267960554862
GLOBALSTAR M096         
1 39075U 13005D   25029.45960161 -.00000056  00000+0  26472-3 0  9998
2 39075  52.0082 292.9111 0000645  40.8462 319.2453 12.62267585553775
GLOBALSTAR M078         
1 39076U 13005E   25029.35336885 -.00000104  00000+0 -27400-5 0  9997
2 39076  51.9891  17.9252 0000711 218.3354 141.7462 12.62269469552386
GLOBALSTAR M095         
1 39077U 13005F   25029.38020977 -.00000102  00000+0  73210-5 0  9990
2 39077  51.9820  15.1124 0000294 274.3705  85.7128 12.62265730552243
GLOBALSTAR M087         
1 52888U 22064A   25029.56932607 -.00000113  00000+0 -51655-4 0  9993
2 52888  51.9781 155.9438 0000768 109.5227 250.5723 12.62268145127535
